*******************************************************************************
JPL/HORIZONS                119 Althaea (A872 GA)          2023-Sep-04 11:04:29
Rec #:     119 (+COV) Soln.date: 2023-Aug-21_17:41:41   # obs: 4066 (1872-2023)
 
IAU76/J2000 helio. ecliptic osc. elements (au, days, deg., period=Julian yrs):
 
  EPOCH=  2457292.5 ! 2015-Sep-27.00 (TDB)         Residual RMS= .33862
   EC= .0808103879931192   QR= 2.37258313237645    TP= 2457116.8035869529
   OM= 203.6781622920256   W=  169.90686455122     IN= 5.782945152529247
   A= 2.581168348058626    MA= 41.75826757376624   ADIST= 2.789753563740803
   PER= 4.14699            N= .237672852           ANGMOM= .027546531
   DAN= 2.78596            DDN= 2.37533            L= 13.6353451
   B= 1.0117868            MOID= 1.37282002        TP= 2015-Apr-04.3035869529
 
Asteroid physical parameters (km, seconds, rotational period in hours):
   GM= n.a.                RAD= 28.65              ROTPER= 11.484
   H= 8.43                 G= .150                 B-V= .874
                           ALBEDO= .2306           STYP= Sl

ASTEROID comments: 
1: soln ref.= JPL#103, OCC=0
2: source=ORB
*******************************************************************************


*******************************************************************************
Ephemeris / API_USER Mon Sep  4 11:04:29 2023 Pasadena, USA      / Horizons
*******************************************************************************
Target body name: 119 Althaea (A872 GA)           {source: JPL#103}
Center body name: Solar System Barycenter (0)     {source: DE441}
Center-site name: BODY CENTER
*******************************************************************************
Start time      : A.D. 2023-Aug-12 00:00:00.0000 TDB
Stop  time      : A.D. 2023-Aug-13 00:00:00.0000 TDB
Step-size       : 2880 minutes
*******************************************************************************
Center geodetic : 0.0, 0.0, 0.0                   {E-lon(deg),Lat(deg),Alt(km)}
Center cylindric: 0.0, 0.0, 0.0                   {E-lon(deg),Dxy(km),Dz(km)}
Center radii    : (undefined)
Small perturbers: Yes                             {source: SB441-N16}
Output units    : KM-S
Calendar mode   : Mixed Julian/Gregorian
Output type     : GEOMETRIC cartesian states
Output format   : 2 (position and velocity)
Reference frame : Ecliptic of J2000.0
*******************************************************************************
Initial IAU76/J2000 heliocentric ecliptic osculating elements (au, days, deg.):
  EPOCH=  2457292.5 ! 2015-Sep-27.00 (TDB)         Residual RMS= .33862        
   EC= .0808103879931192   QR= 2.37258313237645    TP= 2457116.8035869529      
   OM= 203.6781622920256   W=  169.90686455122     IN= 5.782945152529247       
  Equivalent ICRF heliocentric cartesian coordinates (au, au/d):
   X= 1.145812063316884E+00  Y= 2.025521967178449E+00  Z= 7.124496399662945E-01
  VX=-9.669450205701693E-03 VY= 5.734154643466443E-03 VZ= 1.466595721189282E-03
Asteroid physical parameters (km, seconds, rotational period in hours):        
   GM= n.a.                RAD= 28.65              ROTPER= 11.484              
   H= 8.43                 G= .150                 B-V= .874                   
                           ALBEDO= .2306           STYP= Sl                    
*******************************************************************************
JDTDB
   X     Y     Z
   VX    VY    VZ
*******************************************************************************
$$SOE
2460168.500000000 = A.D. 2023-Aug-12 00:00:00.0000 TDB 
 X = 3.334225866824840E+08 Y = 1.171723830650232E+08 Z = 2.724791423993945E+06
 VX=-6.494494575034410E+00 VY= 1.891741259404482E+01 VZ=-2.022219529029750E+00
$$EOE
*******************************************************************************
 
TIME

  Barycentric Dynamical Time ("TDB" or T_eph) output was requested. This
continuous coordinate time is equivalent to the relativistic proper time
of a clock at rest in a reference frame co-moving with the solar system
barycenter but outside the system's gravity well. It is the independent
variable in the solar system relativistic equations of motion.

  TDB runs at a uniform rate of one SI second per second and is independent
of irregularities in Earth's rotation.
 
CALENDAR SYSTEM

  Mixed calendar mode was active such that calendar dates after AD 1582-Oct-15
(if any) are in the modern Gregorian system. Dates prior to 1582-Oct-5 (if any)
are in the Julian calendar system, which is automatically extended for dates
prior to its adoption on 45-Jan-1 BC.  The Julian calendar is useful for
matching historical dates. The Gregorian calendar more accurately corresponds
to the Earth's orbital motion and seasons. A "Gregorian-only" calendar mode is
available if such physical events are the primary interest.

REFERENCE FRAME AND COORDINATES

  Ecliptic at the standard reference epoch

    Reference epoch: J2000.0
    X-Y plane: adopted Earth orbital plane at the reference epoch
               Note: IAU76 obliquity of 84381.448 arcseconds wrt ICRF X-Y plane
    X-axis   : ICRF
    Z-axis   : perpendicular to the X-Y plane in the directional (+ or -) sense
               of Earth's north pole at the reference epoch.

  Symbol meaning:

    JDTDB    Julian Day Number, Barycentric Dynamical Time
      X      X-component of position vector (km)
      Y      Y-component of position vector (km)
      Z      Z-component of position vector (km)
      VX     X-component of velocity vector (km/sec)                           
      VY     Y-component of velocity vector (km/sec)                           
      VZ     Z-component of velocity vector (km/sec)                           

ABERRATIONS AND CORRECTIONS

 Geometric state vectors have NO corrections or aberrations applied.

Computations by ...

    Solar System Dynamics Group, Horizons On-Line Ephemeris System
    4800 Oak Grove Drive, Jet Propulsion Laboratory
    Pasadena, CA  91109   USA

    General site: https://ssd.jpl.nasa.gov/
    Mailing list: https://ssd.jpl.nasa.gov/email_list.html
    System news : https://ssd.jpl.nasa.gov/horizons/news.html
    User Guide  : https://ssd.jpl.nasa.gov/horizons/manual.html
    Connect     : browser        https://ssd.jpl.nasa.gov/horizons/app.html#/x
                  API            https://ssd-api.jpl.nasa.gov/doc/horizons.html
                  command-line   telnet ssd.jpl.nasa.gov 6775
                  e-mail/batch   https://ssd.jpl.nasa.gov/ftp/ssd/hrzn_batch.txt
                  scripts        https://ssd.jpl.nasa.gov/ftp/ssd/SCRIPTS
    Author      : Jon.D.Giorgini@jpl.nasa.gov
*******************************************************************************
